[{"spaceTrack":{"CCSDS_OMM_VERS":"2.0","COMMENT":"GENERATED VIA SPACE-TRACK.ORG API","CREATION_DATE":"2021-05-12T04:44:40","ORIGINATOR":"18 SPCS","OBJECT_NAME":"STARLINK-1159","OBJECT_ID":"2020-006P","CENTER_NAME":"EARTH","REF_FRAME":"TEME","TIME_SYSTEM":"UTC","MEAN_ELEMENT_THEORY":"SGP4","EPOCH":"2021-05-11T18:39:20.535264","MEAN_MOTION":15.06397291,"ECCENTRICITY":0.0001398,"INCLINATION":53.0558,"RA_OF_ASC_NODE":280.6439,"ARG_OF_PERICENTER":106.526,"MEAN_ANOMALY":253.5883,"EPHEMERIS_TYPE":0,"CLASSIFICATION_TYPE":"U","NORAD_CAT_ID":45057,"ELEMENT_SET_NO":999,"REV_AT_EPOCH":7075,"BSTAR":0.000060778,"MEAN_MOTION_DOT":0.00000624,"MEAN_MOTION_DDOT":0,"SEMIMAJOR_AXIS":6925.357,"PERIOD":95.592,"APOAPSIS":548.19,"PERIAPSIS":546.254,"OBJECT_TYPE":"PAYLOAD","RCS_SIZE":"LARGE","COUNTRY_CODE":"US","LAUNCH_DATE":"2020-01-29","SITE":"AFETR","DECAY_DATE":null,"DECAYED":0,"FILE":3035157,"GP_ID":177102721,"TLE_LINE0":"0 STARLINK-1159","TLE_LINE1":"1 45057U 20006P   21131.77732101  .00000624  00000-0  60778-4 0  9999","TLE_LINE2":"2 45057  53.0558 280.6439 0001398 106.5260 253.5883 15.06397291 70758"},"version":"v1.0","launch":"5eb87d3fffd86e000604b382","longitude":-55.99770879080167,"latitude":21.680017761284603,"height_km":547.1149596820078,"velocity_kms":7.59197363881482,"id":"5eed7715096e5900069856fb"},{"spaceTrack":{"CCSDS_OMM_VERS":"2.0","COMMENT":"GENERATED VIA SPACE-TRACK.ORG API","CREATION_DATE":"2021-05-12T07:46:11","ORIGINATOR":"18 SPCS","OBJECT_NAME":"STARLINK-1072","OBJECT_ID":"2020-001X","CENTER_NAME":"EARTH","REF_FRAME":"TEME","TIME_SYSTEM":"UTC","MEAN_ELEMENT_THEORY":"SGP4","EPOCH":"2021-05-12T05:05:40.844256","MEAN_MOTION":15.06397528,"ECCENTRICITY":0.0001892,"INCLINATION":53.059,"RA_OF_ASC_NODE":318.6821,"ARG_OF_PERICENTER":100.3135,"MEAN_ANOMALY":259.8067,"EPHEMERIS_TYPE":0,"CLASSIFICATION_TYPE":"U","NORAD_CAT_ID":44935,"ELEMENT_SET_NO":999,"REV_AT_EPOCH":7448,"BSTAR":0.000065474,"MEAN_MOTION_DOT":0.00000694,"MEAN_MOTION_DDOT":0,"SEMIMAJOR_AXIS":6925.356,"PERIOD":95.592,"APOAPSIS":548.531,"PERIAPSIS":545.911,"OBJECT_TYPE":"PAYLOAD","RCS_SIZE":"LARGE","COUNTRY_CODE":"US","LAUNCH_DATE":"2020-01-07","SITE":"AFETR","DECAY_DATE":null,"DECAYED":0,"FILE":3035364,"GP_ID":177110809,"TLE_LINE0":"0 STARLINK-1072","TLE_LINE1":"1 44935U 20001X   21132.21227829  .00000694  00000-0  65474-4 0  9999","TLE_LINE2":"2 44935  53.0590 318.6821 0001892 100.3135 259.8067 15.06397528 74487"},"version":"v1.0","launch":"5eb87d3cffd86e000604b380","longitude":-92.22898212141915,"latitude":51.60817277456014,"height_km":552.2176156628502,"velocity_kms":7.592577962418209,"id":"5eed7715096e5900069856fc"},{"spaceTrack":{"CCSDS_OMM_VERS":"2.0","COMMENT":"GENERATED VIA SPACE-TRACK.ORG API","CREATION_DATE":"2021-05-12T04:44:40","ORIGINATOR":"18 SPCS","OBJECT_NAME":"STARLINK-1174","OBJECT_ID":"2020-006AH","CENTER_NAME":"EARTH","REF_FRAME":"TEME","TIME_SYSTEM":"UTC","MEAN_ELEMENT_THEORY":"SGP4","EPOCH":"2021-05-11T17:38:18.408192","MEAN_MOTION":15.06391456,"ECCENTRICITY":0.0000993,"INCLINATION":53.0575,"RA_OF_ASC_NODE":260.8226,"ARG_OF_PERICENTER":134.7231,"MEAN_ANOMALY":225.3839,"EPHEMERIS_TYPE":0,"CLASSIFICATION_TYPE":"U","NORAD_CAT_ID":45075,"ELEMENT_SET_NO":999,"REV_AT_EPOCH":7102,"BSTAR":0.000056696,"MEAN_MOTION_DOT":0.00000563,"MEAN_MOTION_DDOT":0,"SEMIMAJOR_AXIS":6925.375,"PERIOD":95.593,"APOAPSIS":547.927,"PERIAPSIS":546.552,"OBJECT_TYPE":"PAYLOAD","RCS_SIZE":"LARGE","COUNTRY_CODE":"US","LAUNCH_DATE":"2020-01-29","SITE":"AFETR","DECAY_DATE":null,"DECAYED":0,"FILE":3035157,"GP_ID":177103224,"TLE_LINE0":"0 STARLINK-1174","TLE_LINE1":"1 45075U 20006AH  21131.73493528  .00000563  00000-0  56696-4 0  9998","TLE_LINE2":"2 45075  53.0575 260.8226 0000993 134.7231 225.3839 15.06391456 71028"},"version":"v1.0","launch":"5eb87d3fffd86e000604b382","longitude":-23.922521285080858,"latitude":-45.53320183783524,"height_km":562.8393360925102,"velocity_kms":7.579585753042826,"id":"5eed7715096e5900069856fd"},{"spaceTrack":{"CCSDS_OMM_VERS":"2.0","COMMENT":"GENERATED VIA SPACE-TRACK.ORG API","CREATION_DATE":"2020-05-29T07:06:09","ORIGINATOR":"18 SPCS","OBJECT_NAME":"STARLINK-1087","OBJECT_ID":"2020-001BD","CENTER_NAME":"EARTH","REF_FRAME":"TEME","TIME_SYSTEM":"UTC","MEAN_ELEMENT_THEORY":"SGP4","EPOCH":"2020-05-28T22:41:27.804480","MEAN_MOTION":16.43727123,"ECCENTRICITY":0.0008979,"INCLINATION":52.9928,"RA_OF_ASC_NODE":43.5355,"ARG_OF_PERICENTER":226.1131,"MEAN_ANOMALY":134.4631,"EPHEMERIS_TYPE":0,"CLASSIFICATION_TYPE":"U","NORAD_CAT_ID":44965,"ELEMENT_SET_NO":999,"REV_AT_EPOCH":2327,"BSTAR":0.0012102,"MEAN_MOTION_DOT":0.34395127,"MEAN_MOTION_DDOT":0.000012367,"SEMIMAJOR_AXIS":6534.043,"PERIOD":87.605,"APOAPSIS":161.775,"PERIAPSIS":150.041,"OBJECT_TYPE":"PAYLOAD","RCS_SIZE":"LARGE","COUNTRY_CODE":"US","LAUNCH_DATE":"2020-01-07","SITE":"AFETR","DECAY_DATE":"2020-05-29","DECAYED":1,"FILE":2755878,"GP_ID":154713658,"TLE_LINE0":"0 STARLINK-1087","TLE_LINE1":"1 44965U 20001BD  20149.94546070  .34395127  12367-4  12102-2 0  9997","TLE_LINE2":"2 44965  52.9928  43.5355 0008979 226.1131 134.4631 16.43727123 23271"},"version":"v1.0","launch":"5eb87d3cffd86e000604b380","longitude":null,"latitude":null,"height_km":null,"velocity_kms":null,"id":"5eed7715096e5900069856fe"},{"spaceTrack":{"CCSDS_OMM_VERS":"2.0","COMMENT":"GENERATED VIA SPACE-TRACK.ORG API","CREATION_DATE":"2021-05-12T04:44:40","ORIGINATOR":"18 SPCS","OBJECT_NAME":"STARLINK-1130","OBJECT_ID":"2020-001U","CENTER_NAME":"EARTH","REF_FRAME":"TEME","TIME_SYSTEM":"UTC","MEAN_ELEMENT_THEORY":"SGP4","EPOCH":"2021-05-11T21:00:00.224640","MEAN_MOTION":15.06391083,"ECCENTRICITY":0.0001721,"INCLINATION":53.0599,"RA_OF_ASC_NODE":340.195,"ARG_OF_PERICENTER":88.4402,"MEAN_ANOMALY":271.6784,"EPHEMERIS_TYPE":0,"CLASSIFICATION_TYPE":"U","NORAD_CAT_ID":44932,"ELEMENT_SET_NO":999,"REV_AT_EPOCH":7538,"BSTAR":-0.000069668,"MEAN_MOTION_DOT":-0.00001319,"MEAN_MOTION_DDOT":0,"SEMIMAJOR_AXIS":6925.376,"PERIOD":95.593,"APOAPSIS":548.433,"PERIAPSIS":546.049,"OBJECT_TYPE":"PAYLOAD","RCS_SIZE":"LARGE","COUNTRY_CODE":"US","LAUNCH_DATE":"2020-01-07","SITE":"AFETR","DECAY_DATE":null,"DECAYED":0,"FILE":3035157,"GP_ID":177103960,"TLE_LINE0":"0 STARLINK-1130","TLE_LINE1":"1 44932U 20001U   21131.87500260 -.00001319  00000-0 -69668-4 0  9996","TLE_LINE2":"2 44932  53.0599 340.1950 0001721  88.4402 271.6784 15.06391083 75388"},"version":"v1.0","launch":"5eb87d3cffd86e000604b380","longitude":-24.238288480290937,"latitude":49.553807417288795,"height_km":551.8372405104046,"velocity_kms":7.5925533714709115,"id":"5eed7715096e5900069856ff"},{"spaceTrack":{"CCSDS_OMM_VERS":"2.0","COMMENT":"GENERATED VIA SPACE-TRACK.ORG API","CREATION_DATE":"2020-11-13T20:33:19","ORIGINATOR":"18 SPCS","OBJECT_NAME":"STARLINK-1077","OBJECT_ID":"2020-001AY","CENTER_NAME":"EARTH","REF_FRAME":"TEME","TIME_SYSTEM":"UTC","MEAN_ELEMENT_THEORY":"SGP4","EPOCH":"2020-11-09T12:32:22.790400","MEAN_MOTION":16.31946065,"ECCENTRICITY":0.0001129,"INCLINATION":52.9869,"RA_OF_ASC_NODE":341.1938,"ARG_OF_PERICENTER":151.1455,"MEAN_ANOMALY":208.965,"EPHEMERIS_TYPE":0,"CLASSIFICATION_TYPE":"U","NORAD_CAT_ID":44960,"ELEMENT_SET_NO":999,"REV_AT_EPOCH":4794,"BSTAR":0.0019755,"MEAN_MOTION_DOT":0.11152622,"MEAN_MOTION_DDOT":0.000012127,"SEMIMAJOR_AXIS":6565.452,"PERIOD":88.238,"APOAPSIS":188.058,"PERIAPSIS":186.575,"OBJECT_TYPE":"PAYLOAD","RCS_SIZE":"LARGE","COUNTRY_CODE":"US","LAUNCH_DATE":"2020-01-07","SITE":"AFETR","DECAY_DATE":"2020-11-09","DECAYED":1,"FILE":2875088,"GP_ID":165437724,"TLE_LINE0":"0 STARLINK-1077","TLE_LINE1":"1 44960U 20001AY  20314.52248600 +.11152622 +12127-4 +19755-2 0  9999","TLE_LINE2":"2 44960 052.9869 341.1938 0001129 151.1455 208.9650 16.31946065047943"},"version":"v1.0","launch":"5eb87d3cffd86e000604b380","longitude":null,"latitude":null,"height_km":null,"velocity_kms":null,"id":"5eed7715096e590006985700"},{"spaceTrack":{"CCSDS_OMM_VERS":"2.0","COMMENT":"GENERATED VIA SPACE-TRACK.ORG API","CREATION_DATE":"2021-05-12T04:44:40","ORIGINATOR":"18 SPCS","OBJECT_NAME":"STARLINK-1133","OBJECT_ID":"2020-006W","CENTER_NAME":"EARTH","REF_FRAME":"TEME","TIME_SYSTEM":"UTC","MEAN_ELEMENT_THEORY":"SGP4","EPOCH":"2021-05-11T19:03:12.564288","MEAN_MOTION":15.06405301,"ECCENTRICITY":0.0001159,"INCLINATION":53.0581,"RA_OF_ASC_NODE":260.5642,"ARG_OF_PERICENTER":127.7777,"MEAN_ANOMALY":232.3317,"EPHEMERIS_TYPE":0,"CLASSIFICATION_TYPE":"U","NORAD_CAT_ID":45064,"ELEMENT_SET_NO":999,"REV_AT_EPOCH":7103,"BSTAR":0.000061352,"MEAN_MOTION_DOT":0.00000633,"MEAN_MOTION_DDOT":0,"SEMIMAJOR_AXIS":6925.332,"PERIOD":95.592,"APOAPSIS":548,"PERIAPSIS":546.395,"OBJECT_TYPE":"PAYLOAD","RCS_SIZE":"LARGE","COUNTRY_CODE":"US","LAUNCH_DATE":"2020-01-29","SITE":"AFETR","DECAY_DATE":null,"DECAYED":0,"FILE":3035157,"GP_ID":177103473,"TLE_LINE0":"0 STARLINK-1133","TLE_LINE1":"1 45064U 20006W   21131.79389542  .00000633  00000-0  61352-4 0  9995","TLE_LINE2":"2 45064  53.0581 260.5642 0001159 127.7777 232.3317 15.06405301 71039"},"version":"v1.0","launch":"5eb87d3fffd86e000604b382","longitude":37.47016517471349,"latitude":-51.29897675564957,"height_km":565.6474153707459,"velocity_kms":7.577782087113661,"id":"5eed7715096e590006985701"}]